[{"OBJECT_NAME":"KOSEN-1","OBJECT_ID":"2021-102H","EPOCH":"2026-03-09T22:29:54.100608","MEAN_MOTION":15.25323573,"ECCENTRICITY":0.00138659,"INCLINATION":97.3334,"RA_OF_ASC_NODE":113.0569,"ARG_OF_PERICENTER":191.9191,"MEAN_ANOMALY":168.1721,"EPHEMERIS_TYPE":0,"CLASSIFICATION_TYPE":"U","NORAD_CAT_ID":49402,"ELEMENT_SET_NO":999,"REV_AT_EPOCH":23888,"BSTAR":0.00040411561,"MEAN_MOTION_DOT":0.00010142,"MEAN_MOTION_DDOT":0},{"OBJECT_NAME":"UNKNOWN","OBJECT_ID":"","EPOCH":"2026-02-15T06:28:00.562080","MEAN_MOTION":14.53453444,"ECCENTRICITY":0.0369408,"INCLINATION":66.0766,"RA_OF_ASC_NODE":348.0426,"ARG_OF_PERICENTER":102.1486,"MEAN_ANOMALY":262.125,"EPHEMERIS_TYPE":0,"CLASSIFICATION_TYPE":"U","NORAD_CAT_ID":81947,"ELEMENT_SET_NO":999,"REV_AT_EPOCH":64039,"BSTAR":0.00046514,"MEAN_MOTION_DOT":4.726e-5,"MEAN_MOTION_DDOT":0}]
